CCSDS_OMM_VERS = 2.0
CREATION_DATE  = 
ORIGINATOR     = 

OBJECT_NAME    = UNKNOWN
OBJECT_ID      = 
CENTER_NAME    = EARTH
REF_FRAME      = TEME
TIME_SYSTEM    = UTC
MEAN_ELEMENT_THEORY = SGP/SGP4

EPOCH          = 2026-01-26T10:20:31.494048
MEAN_MOTION    = 13.38031353
ECCENTRICITY   = .0212688
INCLINATION    = 67.1370
RA_OF_ASC_NODE = 78.2256
ARG_OF_PERICENTER = 2.6009
MEAN_ANOMALY   = 15.6934

EPHEMERIS_TYPE = 0
CLASSIFICATION_TYPE = U
NORAD_CAT_ID   = 81317
ELEMENT_SET_NO = 999
REV_AT_EPOCH   = 59461
BSTAR          = .37526E-3
MEAN_MOTION_DOT = .161E-5
MEAN_MOTION_DDOT = 0

CCSDS_OMM_VERS = 2.0
CREATION_DATE  = 
ORIGINATOR     = 

OBJECT_NAME    = UNKNOWN
OBJECT_ID      = 
CENTER_NAME    = EARTH
REF_FRAME      = TEME
TIME_SYSTEM    = UTC
MEAN_ELEMENT_THEORY = SGP/SGP4

EPOCH          = 2026-01-22T09:40:09.103296
MEAN_MOTION    = 14.48797606
ECCENTRICITY   = .0340684
INCLINATION    = 65.7505
RA_OF_ASC_NODE = 274.9589
ARG_OF_PERICENTER = 292.0669
MEAN_ANOMALY   = 64.4579

EPHEMERIS_TYPE = 0
CLASSIFICATION_TYPE = U
NORAD_CAT_ID   = 81323
ELEMENT_SET_NO = 999
REV_AT_EPOCH   = 11894
BSTAR          = .21573E-2
MEAN_MOTION_DOT = .17147E-3
MEAN_MOTION_DDOT = 0

CCSDS_OMM_VERS = 2.0
CREATION_DATE  = 
ORIGINATOR     = 

OBJECT_NAME    = UNKNOWN
OBJECT_ID      = 
CENTER_NAME    = EARTH
REF_FRAME      = TEME
TIME_SYSTEM    = UTC
MEAN_ELEMENT_THEORY = SGP/SGP4

EPOCH          = 2026-01-23T06:59:32.925120
MEAN_MOTION    = 13.22304275
ECCENTRICITY   = .0833487
INCLINATION    = 65.8222
RA_OF_ASC_NODE = 35.1319
ARG_OF_PERICENTER = 11.0968
MEAN_ANOMALY   = 350.7249

EPHEMERIS_TYPE = 0
CLASSIFICATION_TYPE = U
NORAD_CAT_ID   = 81329
ELEMENT_SET_NO = 999
REV_AT_EPOCH   = 58357
BSTAR          = .16435E-2
MEAN_MOTION_DOT = .4601E-4
MEAN_MOTION_DDOT = 0

CCSDS_OMM_VERS = 2.0
CREATION_DATE  = 
ORIGINATOR     = 

OBJECT_NAME    = UNKNOWN
OBJECT_ID      = 
CENTER_NAME    = EARTH
REF_FRAME      = TEME
TIME_SYSTEM    = UTC
MEAN_ELEMENT_THEORY = SGP/SGP4

EPOCH          = 2026-01-26T09:52:27.304896
MEAN_MOTION    = 15.04540297
ECCENTRICITY   = .0010437
INCLINATION    = 85.8731
RA_OF_ASC_NODE = 175.4722
ARG_OF_PERICENTER = 95.3398
MEAN_ANOMALY   = 264.9027

EPHEMERIS_TYPE = 0
CLASSIFICATION_TYPE = U
NORAD_CAT_ID   = 81343
ELEMENT_SET_NO = 999
REV_AT_EPOCH   = 46103
BSTAR          = .82304E-3
MEAN_MOTION_DOT = .11582E-3
MEAN_MOTION_DDOT = 0

CCSDS_OMM_VERS = 2.0
CREATION_DATE  = 
ORIGINATOR     = 

OBJECT_NAME    = UNKNOWN
OBJECT_ID      = 
CENTER_NAME    = EARTH
REF_FRAME      = TEME
TIME_SYSTEM    = UTC
MEAN_ELEMENT_THEORY = SGP/SGP4

EPOCH          = 2026-01-21T05:02:39.501888
MEAN_MOTION    = 13.78904867
ECCENTRICITY   = .0119894
INCLINATION    = 66.8013
RA_OF_ASC_NODE = 317.5214
ARG_OF_PERICENTER = 298.0230
MEAN_ANOMALY   = 60.8756

EPHEMERIS_TYPE = 0
CLASSIFICATION_TYPE = U
NORAD_CAT_ID   = 81359
ELEMENT_SET_NO = 999
REV_AT_EPOCH   = 61092
BSTAR          = .10182E-2
MEAN_MOTION_DOT = .1021E-4
MEAN_MOTION_DDOT = 0

CCSDS_OMM_VERS = 2.0
CREATION_DATE  = 
ORIGINATOR     = 

OBJECT_NAME    = UNKNOWN
OBJECT_ID      = 
CENTER_NAME    = EARTH
REF_FRAME      = TEME
TIME_SYSTEM    = UTC
MEAN_ELEMENT_THEORY = SGP/SGP4

EPOCH          = 2026-01-23T13:42:24.713568
MEAN_MOTION    = 13.45240902
ECCENTRICITY   = .0710553
INCLINATION    = 65.8851
RA_OF_ASC_NODE = 333.0189
ARG_OF_PERICENTER = 61.2235
MEAN_ANOMALY   = 305.8290

EPHEMERIS_TYPE = 0
CLASSIFICATION_TYPE = U
NORAD_CAT_ID   = 81366
ELEMENT_SET_NO = 999
REV_AT_EPOCH   = 7158
BSTAR          = .10155E-2
MEAN_MOTION_DOT = .2808E-4
MEAN_MOTION_DDOT = 0

CCSDS_OMM_VERS = 2.0
CREATION_DATE  = 
ORIGINATOR     = 

OBJECT_NAME    = UNKNOWN
OBJECT_ID      = 
CENTER_NAME    = EARTH
REF_FRAME      = TEME
TIME_SYSTEM    = UTC
MEAN_ELEMENT_THEORY = SGP/SGP4

EPOCH          = 2026-01-19T12:58:59.102112
MEAN_MOTION    = 14.70593876
ECCENTRICITY   = .0069399
INCLINATION    = 98.8124
RA_OF_ASC_NODE = 124.0055
ARG_OF_PERICENTER = 246.4516
MEAN_ANOMALY   = 112.9387

EPHEMERIS_TYPE = 0
CLASSIFICATION_TYPE = U
NORAD_CAT_ID   = 81371
ELEMENT_SET_NO = 999
REV_AT_EPOCH   = 64739
BSTAR          = .77196E-3
MEAN_MOTION_DOT = .4811E-4
MEAN_MOTION_DDOT = 0

CCSDS_OMM_VERS = 2.0
CREATION_DATE  = 
ORIGINATOR     = 

OBJECT_NAME    = UNKNOWN
OBJECT_ID      = 
CENTER_NAME    = EARTH
REF_FRAME      = TEME
TIME_SYSTEM    = UTC
MEAN_ELEMENT_THEORY = SGP/SGP4

EPOCH          = 2026-01-24T09:18:46.560960
MEAN_MOTION    = 14.36837646
ECCENTRICITY   = .0086265
INCLINATION    = 71.0463
RA_OF_ASC_NODE = 263.9787
ARG_OF_PERICENTER = 16.6445
MEAN_ANOMALY   = 343.7489

EPHEMERIS_TYPE = 0
CLASSIFICATION_TYPE = U
NORAD_CAT_ID   = 81386
ELEMENT_SET_NO = 999
REV_AT_EPOCH   = 63036
BSTAR          = .26389E-2
MEAN_MOTION_DOT = .8101E-4
MEAN_MOTION_DDOT = 0

CCSDS_OMM_VERS = 2.0
CREATION_DATE  = 
ORIGINATOR     = 

OBJECT_NAME    = UNKNOWN
OBJECT_ID      = 
CENTER_NAME    = EARTH
REF_FRAME      = TEME
TIME_SYSTEM    = UTC
MEAN_ELEMENT_THEORY = SGP/SGP4

EPOCH          = 2026-01-18T23:31:23.659680
MEAN_MOTION    = 12.35626022
ECCENTRICITY   = .0169605
INCLINATION    = 103.1077
RA_OF_ASC_NODE = 275.1799
ARG_OF_PERICENTER = 77.6089
MEAN_ANOMALY   = 284.3892

EPHEMERIS_TYPE = 0
CLASSIFICATION_TYPE = U
NORAD_CAT_ID   = 81390
ELEMENT_SET_NO = 999
REV_AT_EPOCH   = 50469
BSTAR          = -.1921E-3
MEAN_MOTION_DOT = -.75E-6
MEAN_MOTION_DDOT = 0

CCSDS_OMM_VERS = 2.0
CREATION_DATE  = 
ORIGINATOR     = 

OBJECT_NAME    = UNKNOWN
OBJECT_ID      = 
CENTER_NAME    = EARTH
REF_FRAME      = TEME
TIME_SYSTEM    = UTC
MEAN_ELEMENT_THEORY = SGP/SGP4

EPOCH          = 2026-01-22T05:36:45.636192
MEAN_MOTION    = 13.81993316
ECCENTRICITY   = .0042022
INCLINATION    = 100.4029
RA_OF_ASC_NODE = 19.5532
ARG_OF_PERICENTER = 291.4727
MEAN_ANOMALY   = 80.5645

EPHEMERIS_TYPE = 0
CLASSIFICATION_TYPE = U
NORAD_CAT_ID   = 81392
ELEMENT_SET_NO = 999
REV_AT_EPOCH   = 60777
BSTAR          = .49656E-2
MEAN_MOTION_DOT = .5321E-4
MEAN_MOTION_DDOT = 0

CCSDS_OMM_VERS = 2.0
CREATION_DATE  = 
ORIGINATOR     = 

OBJECT_NAME    = UNKNOWN
OBJECT_ID      = 
CENTER_NAME    = EARTH
REF_FRAME      = TEME
TIME_SYSTEM    = UTC
MEAN_ELEMENT_THEORY = SGP/SGP4

EPOCH          = 2026-01-03T09:08:44.571552
MEAN_MOTION    = 13.88959115
ECCENTRICITY   = .016119
INCLINATION    = 99.4680
RA_OF_ASC_NODE = 56.9006
ARG_OF_PERICENTER = 166.1515
MEAN_ANOMALY   = 194.4141

EPHEMERIS_TYPE = 0
CLASSIFICATION_TYPE = U
NORAD_CAT_ID   = 81405
ELEMENT_SET_NO = 999
REV_AT_EPOCH   = 56480
BSTAR          = .20508E-2
MEAN_MOTION_DOT = .271E-4
MEAN_MOTION_DDOT = 0

CCSDS_OMM_VERS = 2.0
CREATION_DATE  = 
ORIGINATOR     = 

OBJECT_NAME    = UNKNOWN
OBJECT_ID      = 
CENTER_NAME    = EARTH
REF_FRAME      = TEME
TIME_SYSTEM    = UTC
MEAN_ELEMENT_THEORY = SGP/SGP4

EPOCH          = 2026-01-19T02:54:56.202048
MEAN_MOTION    = 14.07016817
ECCENTRICITY   = .0083933
INCLINATION    = 98.7483
RA_OF_ASC_NODE = 265.0501
ARG_OF_PERICENTER = 293.7541
MEAN_ANOMALY   = 65.4841

EPHEMERIS_TYPE = 0
CLASSIFICATION_TYPE = U
NORAD_CAT_ID   = 81427
ELEMENT_SET_NO = 999
REV_AT_EPOCH   = 55702
BSTAR          = .36083E-3
MEAN_MOTION_DOT = .579E-5
MEAN_MOTION_DDOT = 0

