UNKNOWN                 
1 81317U          26026.43092007  .00000161  00000+0  37526-3 0  9994
2 81317  67.1370  78.2256 0212688   2.6009  15.6934 13.38031353594613
UNKNOWN                 
1 81323U          26022.40288314  .00017147  00000+0  21573-2 0  9998
2 81323  65.7505 274.9589 0340684 292.0669  64.4579 14.48797606118940
UNKNOWN                 
1 81329U          26023.29135330  .00004601  00000+0  16435-2 0  9993
2 81329  65.8222  35.1319 0833487  11.0968 350.7249 13.22304275583577
UNKNOWN                 
1 81343U          26026.41142714  .00011582  00000+0  82304-3 0  9995
2 81343  85.8731 175.4722 0010437  95.3398 264.9027 15.04540297461034
UNKNOWN                 
1 81359U          26021.21017942  .00001021  00000+0  10182-2 0  9990
2 81359  66.8013 317.5214 0119894 298.0230  60.8756 13.78904867610924
UNKNOWN                 
1 81366U          26023.57111937  .00002808  00000+0  10155-2 0  9992
2 81366  65.8851 333.0189 0710553  61.2235 305.8290 13.45240902 71584
UNKNOWN                 
1 81371U          26019.54096183  .00004811  00000+0  77196-3 0  9990
2 81371  98.8124 124.0055 0069399 246.4516 112.9387 14.70593876647395
UNKNOWN                 
1 81386U          26024.38803890  .00008101  00000+0  26389-2 0  9998
2 81386  71.0463 263.9787 0086265  16.6445 343.7489 14.36837646630368
UNKNOWN                 
1 81390U          26018.98013495 -.00000075  00000+0 -19210-3 0  9996
2 81390 103.1077 275.1799 0169605  77.6089 284.3892 12.35626022504695
UNKNOWN                 
1 81392U          26022.23386153  .00005321  00000+0  49656-2 0  9998
2 81392 100.4029  19.5532 0042022 291.4727  80.5645 13.81993316607777
UNKNOWN                 
1 81405U          26003.38107143  .00002710  00000+0  20508-2 0  9992
2 81405  99.4680  56.9006 0161190 166.1515 194.4141 13.88959115564802
UNKNOWN                 
1 81427U          26019.12148382  .00000579  00000+0  36083-3 0  9992
2 81427  98.7483 265.0501 0083933 293.7541  65.4841 14.07016817557021
